[{"OBJECT_NAME":"TSAT-1A","OBJECT_ID":"2024-066A","EPOCH":"2026-03-09T22:56:57.116832","MEAN_MOTION":15.33219384,"ECCENTRICITY":0.00111833,"INCLINATION":45.6179,"RA_OF_ASC_NODE":302.0275,"ARG_OF_PERICENTER":264.5913,"MEAN_ANOMALY":95.3706,"EPHEMERIS_TYPE":0,"CLASSIFICATION_TYPE":"U","NORAD_CAT_ID":59442,"ELEMENT_SET_NO":999,"REV_AT_EPOCH":10653,"BSTAR":0.00047082724,"MEAN_MOTION_DOT":0.00015138,"MEAN_MOTION_DDOT":0},{"OBJECT_NAME":"STARLINK-35016","OBJECT_ID":"2025-189U","EPOCH":"2026-03-09T16:13:17.531904","MEAN_MOTION":15.30200147,"ECCENTRICITY":0.00010914,"INCLINATION":53.1572,"RA_OF_ASC_NODE":206.8759,"ARG_OF_PERICENTER":52.1383,"MEAN_ANOMALY":307.9716,"EPHEMERIS_TYPE":0,"CLASSIFICATION_TYPE":"U","NORAD_CAT_ID":65341,"ELEMENT_SET_NO":999,"REV_AT_EPOCH":3105,"BSTAR":0.001441323,"MEAN_MOTION_DOT":0.00042574,"MEAN_MOTION_DDOT":0}]
